NORAD_CAT_ID,OBJECT_NAME,OBJECT_TYPE,EPOCH,MEAN_MOTION,ECCENTRICITY,INCLINATION,RA_OF_ASC_NODE,ARG_OF_PERICENTER,MEAN_ANOMALY,BSTAR,MEAN_MOTION_DOT,MEAN_MOTION_DDOT,TLE_LINE0,TLE_LINE1,TLE_LINE2,SEMIMAJOR_AXIS,PERIOD,APOGEE,PERIGEE,DECAYED
53729.0,STARLINK-4651,PAYLOAD,2023-06-23 22:35:27,15.08841675,9.82e-05,53.218,17.383,88.9744,271.136,6.533e-05,7.52e-06,0.0,0 STARLINK-4651,1 53729U 22107AF  23174.94128984  .00000752  00000-0  65330-4 0  9995,2 53729  53.2180  17.3830 0000982  88.9744 271.1360 15.08841675 44539,6917.875,95.437,540.42,539.061,0.0
53729.0,STARLINK-4651,PAYLOAD,2023-06-24 12:53:56,15.08836057,0.0001036,53.2186,14.707,97.8288,262.2822,4.2444e-05,3.88e-06,0.0,0 STARLINK-4651,1 53729U 22107AF  23175.53745546  .00000388  00000-0  42444-4 0  9996,2 53729  53.2186  14.7070 0001036  97.8288 262.2822 15.08836057 44627,6917.892,95.438,540.474,539.041,0.0
53729.0,STARLINK-4651,PAYLOAD,2023-06-24 20:50:51,15.08847465,0.000101,53.2177,13.2197,92.5373,267.5735,5.2413e-05,5.47e-06,0.0,0 STARLINK-4651,1 53729U 22107AF  23175.86864854  .00000547  00000-0  52413-4 0  9990,2 53729  53.2177  13.2197 0001010  92.5373 267.5735 15.08847465 44671,6917.858,95.437,540.421,539.024,0.0
53729.0,STARLINK-4651,PAYLOAD,2023-06-25 06:23:10,15.08842415,9.99e-05,53.2179,11.4349,89.0642,271.0465,3.4074e-05,2.55e-06,0.0,0 STARLINK-4651,1 53729U 22107AF  23176.26609171  .00000255  00000-0  34074-4 0  9993,2 53729  53.2179  11.4349 0000999  89.0642 271.0465 15.08842415 44734,6917.873,95.437,540.429,539.047,0.0
53729.0,STARLINK-4651,PAYLOAD,2023-06-25 12:44:43,15.08833309,9.86e-05,53.2175,10.2461,90.4333,269.6772,9.9343e-05,1.293e-05,0.0,0 STARLINK-4651,1 53729U 22107AF  23176.53105578  .00001293  00000-0  99343-4 0  9998,2 53729  53.2175  10.2461 0000986  90.4333 269.6772 15.08833309 44771,6917.901,95.438,540.448,539.084,0.0
53729.0,STARLINK-4651,PAYLOAD,2023-06-25 20:41:38,15.08841167,9.55e-05,53.2171,8.7586,96.1011,264.009,9.2009e-05,1.177e-05,0.0,0 STARLINK-4651,1 53729U 22107AF  23176.86225136  .00001177  00000-0  92009-4 0  9990,2 53729  53.2171   8.7586 0000955  96.1011 264.0090 15.08841167 44828,6917.877,95.437,540.402,539.081,0.0
53729.0,STARLINK-4651,PAYLOAD,2023-06-26 15:46:16,15.08839357,9.88e-05,53.2169,5.1889,104.4232,255.687,-2.036e-05,-6.12e-06,0.0,0 STARLINK-4651,1 53729U 22107AF  23177.65713705 -.00000612  00000-0 -20360-4 0  9998,2 53729  53.2169   5.1889 0000988 104.4232 255.6870 15.08839357 44949,6917.882,95.438,540.431,539.064,0.0
53729.0,STARLINK-4651,PAYLOAD,2023-06-27 18:47:49,15.08843659,9.86e-05,53.2182,0.1357,94.7004,265.4101,6.3127e-05,7.17e-06,0.0,0 STARLINK-4651,1 53729U 22107AF  23178.78321310  .00000717  00000-0  63127-4 0  9992,2 53729  53.2182   0.1357 0000986  94.7004 265.4101 15.08843659 45111,6917.869,95.437,540.416,539.052,0.0
53729.0,STARLINK-4651,PAYLOAD,2023-06-28 18:38:36,15.08838861,0.0001052,53.2182,355.6753,84.8406,275.2706,6.5392e-05,7.53e-06,0.0,0 STARLINK-4651,1 53729U 22107AF  23179.77681680  .00000753  00000-0  65392-4 0  9997,2 53729  53.2182 355.6753 0001052  84.8406 275.2706 15.08838861 45265,6917.884,95.438,540.477,539.021,0.0
53729.0,STARLINK-4651,PAYLOAD,2023-06-29 18:29:25,15.08830712,0.0001094,53.2187,351.2128,85.2678,274.8439,-7.9861e-05,-1.558e-05,0.0,0 STARLINK-4651,1 53729U 22107AF  23180.77042968 -.00001558  00000-0 -79861-4 0  9991,2 53729  53.2187 351.2128 0001094  85.2678 274.8439 15.08830712 45412,6917.909,95.438,540.531,539.017,0.0
53729.0,STARLINK-4651,PAYLOAD,2023-06-30 15:09:24,15.08846628,0.0001258,53.2194,347.3534,117.5013,242.6107,0.00011326,1.515e-05,0.0,0 STARLINK-4651,1 53729U 22107AF  23181.63153423  .00001515  00000-0  11326-3 0  9998,2 53729  53.2194 347.3534 0001258 117.5013 242.6107 15.08846628 45543,6917.86,95.437,540.595,538.855,0.0
53729.0,STARLINK-4651,PAYLOAD,2023-07-01 03:52:29,15.08842358,8.44e-05,53.2178,344.9707,94.6078,265.501,8.2841e-05,1.031e-05,0.0,0 STARLINK-4651,1 53729U 22107AF  23182.16145585  .00001031  00000-0  82841-4 0  9991,2 53729  53.2178 344.9707 0000844  94.6078 265.5010 15.08842358 45628,6917.873,95.437,540.322,539.154,0.0
53729.0,STARLINK-4651,PAYLOAD,2023-07-01 18:10:58,15.08832419,0.0001041,53.2192,342.2954,84.5014,275.6097,7.2997e-05,8.74e-06,0.0,0 STARLINK-4651,1 53729U 22107AF  23182.75762630  .00000874  00000-0  72997-4 0  9997,2 53729  53.2192 342.2954 0001041  84.5014 275.6097 15.08832419 45711,6917.904,95.438,540.489,539.048,0.0
53729.0,STARLINK-4651,PAYLOAD,2023-07-02 14:50:59,15.08845065,9e-05,53.2182,338.4294,84.4739,275.6356,1.9525e-05,2.3e-07,0.0,0 STARLINK-4651,1 53729U 22107AF  23183.61873960  .00000023  00000-0  19525-4 0  9996,2 53729  53.2182 338.4294 0000900  84.4739 275.6356 15.08845065 45843,6917.865,95.437,540.353,539.107,0.0
53729.0,STARLINK-4651,PAYLOAD,2023-07-02 19:37:07,15.0885437,0.0001025,53.2185,337.5379,106.339,253.7715,-5.14e-06,-3.7e-06,0.0,0 STARLINK-4651,1 53729U 22107AF  23183.81745370 -.00000370  00000-0 -51400-5 0  9997,2 53729  53.2185 337.5379 0001025 106.3390 253.7715 15.08854370 45874,6917.836,95.437,540.411,538.992,0.0
53729.0,STARLINK-4651,PAYLOAD,2023-07-03 03:34:03,15.08848558,9.21e-05,53.2183,336.0496,79.5817,280.5279,-3.1324e-05,-7.86e-06,0.0,0 STARLINK-4651,1 53729U 22107AF  23184.14865642 -.00000786  00000-0 -31324-4 0  9992,2 53729  53.2183 336.0496 0000921  79.5817 280.5279 15.08848558 45925,6917.854,95.437,540.356,539.082,0.0
53729.0,STARLINK-4651,PAYLOAD,2023-07-04 12:57:10,15.08842731,9.88e-05,53.2173,329.8048,76.2313,283.8789,-4.2093e-05,-9.58e-06,0.0,0 STARLINK-4651,1 53729U 22107AF  23185.53970023 -.00000958  00000-0 -42093-4 0  9992,2 53729  53.2173 329.8048 0000988  76.2313 283.8789 15.08842731 46138,6917.872,95.437,540.421,539.054,0.0
53729.0,STARLINK-4651,PAYLOAD,2023-07-05 14:23:20,15.08836932,9.57e-05,53.2181,325.0475,83.4312,276.6789,-4.5725e-06,-3.6e-06,0.0,0 STARLINK-4651,1 53729U 22107AF  23186.59954328 -.00000360  00000-0 -45725-5 0  9992,2 53729  53.2181 325.0475 0000957  83.4312 276.6789 15.08836932 46297,6917.89,95.438,540.417,539.093,0.0
53729.0,STARLINK-4651,PAYLOAD,2023-07-06 19:00:16,15.08843868,8.37e-05,53.2179,319.6944,93.505,266.6038,0.00010944,1.455e-05,0.0,0 STARLINK-4651,1 53729U 22107AF  23187.79185721  .00001455  00000-0  10944-3 0  9995,2 53729  53.2179 319.6944 0000837  93.5050 266.6038 15.08843868 46474,6917.869,95.437,540.313,539.155,0.0
53729.0,STARLINK-4651,PAYLOAD,2023-07-07 01:21:49,15.08837634,9.94e-05,53.2181,318.5043,87.8013,272.3093,2.6467e-05,1.33e-06,0.0,0 STARLINK-4651,1 53729U 22107AF  23188.05682367  .00000133  00000-0  26467-4 0  9993,2 53729  53.2181 318.5043 0000994  87.8013 272.3093 15.08837634 46518,6917.888,95.438,540.44,539.065,0.0
53729.0,STARLINK-4651,PAYLOAD,2023-07-07 09:18:46,15.08826734,7.01e-05,53.2182,317.0186,106.0895,254.0175,-0.00010025,-1.882e-05,0.0,0 STARLINK-4651,1 53729U 22107AF  23188.38803696 -.00001882  00000-0 -10025-3 0  9995,2 53729  53.2182 317.0186 0000701 106.0895 254.0175 15.08826734 46561,6917.921,95.438,540.271,539.301,0.0
53729.0,STARLINK-4651,PAYLOAD,2023-07-08 01:12:37,15.08835956,7.33e-05,53.2184,314.044,82.8306,277.277,1.305e-05,-8e-07,0.0,0 STARLINK-4651,1 53729U 22107AF  23189.05043098 -.00000080  00000-0  13050-4 0  9992,2 53729  53.2184 314.0440 0000733  82.8306 277.2770 15.08835956 46661,6917.893,95.438,540.265,539.251,0.0
53729.0,STARLINK-4651,PAYLOAD,2023-07-08 15:31:04,15.08850485,8.01e-05,53.2189,311.3697,94.1677,265.9407,0.00014664,2.047e-05,0.0,0 STARLINK-4651,1 53729U 22107AF  23189.64657940  .00002047  00000-0  14664-3 0  9999,2 53729  53.2189 311.3697 0000801  94.1677 265.9407 15.08850485 46758,6917.848,95.437,540.267,539.159,0.0
53729.0,STARLINK-4651,PAYLOAD,2023-07-09 12:11:06,15.0883099,9.34e-05,53.2189,307.5034,107.5017,252.6077,0.00010841,1.438e-05,0.0,0 STARLINK-4651,1 53729U 22107AF  23190.50771277  .00001438  00000-0  10841-3 0  9992,2 53729  53.2189 307.5034 0000934 107.5017 252.6077 15.08830990 46883,6917.908,95.438,540.419,539.127,0.0
53729.0,STARLINK-4651,PAYLOAD,2023-07-10 07:15:43,15.08843023,7.33e-05,53.218,303.9351,85.811,274.2966,2.7179e-05,1.45e-06,0.0,0 STARLINK-4651,1 53729U 22107AF  23191.30258958  .00000145  00000-0  27179-4 0  9994,2 53729  53.2180 303.9351 0000733  85.8110 274.2966 15.08843023 47008,6917.871,95.437,540.243,539.229,0.0
53729.0,STARLINK-4651,PAYLOAD,2023-07-10 16:48:01,15.08848583,9.16e-05,53.2173,302.1503,97.8976,262.212,8.0907e-05,1e-05,0.0,0 STARLINK-4651,1 53729U 22107AF  23191.70002292  .00001000  00000-0  80907-4 0  9995,2 53729  53.2173 302.1503 0000916  97.8976 262.2120 15.08848583 47067,6917.854,95.437,540.353,539.085,0.0
53729.0,STARLINK-4651,PAYLOAD,2023-07-11 07:06:30,15.08839374,8.81e-05,53.2179,299.4749,88.4083,271.701,5.0717e-05,5.2e-06,0.0,0 STARLINK-4651,1 53729U 22107AF  23192.29618854  .00000520  00000-0  50717-4 0  9999,2 53729  53.2179 299.4749 0000881  88.4083 271.7010 15.08839374 47150,6917.882,95.438,540.357,539.138,0.0
53729.0,STARLINK-4651,PAYLOAD,2023-07-12 13:18:49,15.08843261,8.07e-05,53.2171,293.8261,82.8646,277.2438,4.3177e-05,4e-06,0.0,0 STARLINK-4651,1 53729U 22107AF  23193.55474470  .00000400  00000-0  43177-4 0  9992,2 53729  53.2171 293.8261 0000807  82.8646 277.2438 15.08843261 47346,6917.87,95.437,540.294,539.177,0.0
53729.0,STARLINK-4651,PAYLOAD,2023-07-13 14:45:00,15.08839784,8.23e-05,53.2172,289.0673,92.6339,267.4747,1.7865e-05,-3e-08,0.0,0 STARLINK-4651,1 53729U 22107AF  23194.61458756 -.00000003  00000-0  17865-4 0  9994,2 53729  53.2172 289.0673 0000823  92.6339 267.4747 15.08839784 47504,6917.881,95.438,540.315,539.177,0.0
53729.0,STARLINK-4651,PAYLOAD,2023-07-14 22:32:42,15.08842285,0.0001008,53.2182,283.1183,87.2706,272.8402,0.00010142,1.327e-05,0.0,0 STARLINK-4651,1 53729U 22107AF  23195.93938527  .00001327  00000-0  10142-3 0  9998,2 53729  53.2182 283.1183 0001008  87.2706 272.8402 15.08842285 47700,6917.873,95.437,540.436,539.041,0.0
